start=new Date('2022-01-27T00:00:00.000Z').valueOf();
sats=[{"RCS_SIZE":"LARGE","TLE_LINE1":"1 46042U 20055R   22026.41119198  .00000813  00000-0  73473-4 0  9994","APOAPSIS":"548.090","SITE":"AFETR","INCLINATION":"53.0561","ARG_OF_PERICENTER":"65.8236","ECCENTRICITY":"0.00013100","TLE_LINE2":"2 46042  53.0561  35.1094 0001310  65.8236 294.2890 15.06410204 82271","NORAD_CAT_ID":"46042","PERIAPSIS":"546.275","SEMIMAJOR_AXIS":"6925.317","EPHEMERIS_TYPE":"0","MEAN_ANOMALY":"294.2890","GP_ID":"194678961","MEAN_ELEMENT_THEORY":"SGP4","REF_FRAME":"TEME","DECAY_DATE":null,"FILE":"3284266","MEAN_MOTION":"15.06410204","TIME_SYSTEM":"UTC","LAUNCH_DATE":"2020-08-07","OBJECT_NAME":"STARLINK-1581","MEAN_MOTION_DDOT":"0.0000000000000","RA_OF_ASC_NODE":"35.1094","CENTER_NAME":"EARTH","OBJECT_TYPE":"PAYLOAD","BSTAR":"0.00007347300000","REV_AT_EPOCH":"8227","PERIOD":"95.591","EPOCH":"2022-01-26T09:52:06.987072","OBJECT_ID":"2020-055R","COUNTRY_CODE":"US","MEAN_MOTION_DOT":"0.00000813","CLASSIFICATION_TYPE":"U","ELEMENT_SET_NO":"999"},{"OBJECT_ID":"2020-055S","MEAN_MOTION_DOT":"-0.00000385","COUNTRY_CODE":"US","CLASSIFICATION_TYPE":"U","ELEMENT_SET_NO":"999","BSTAR":"-0.00000691570000","OBJECT_TYPE":"PAYLOAD","PERIOD":"95.592","EPOCH":"2022-01-26T09:41:30.426432","REV_AT_EPOCH":"8230","MEAN_MOTION":"15.06397857","FILE":"3284266","TIME_SYSTEM":"UTC","LAUNCH_DATE":"2020-08-07","MEAN_MOTION_DDOT":"0.0000000000000","OBJECT_NAME":"STARLINK-1582","CENTER_NAME":"EARTH","RA_OF_ASC_NODE":"35.1413","GP_ID":"194679211","MEAN_ELEMENT_THEORY":"SGP4","DECAY_DATE":null,"REF_FRAME":"TEME","PERIAPSIS":"546.149","MEAN_ANOMALY":"281.6100","SEMIMAJOR_AXIS":"6925.355","EPHEMERIS_TYPE":"0","NORAD_CAT_ID":"46043","INCLINATION":"53.0564","SITE":"AFETR","APOAPSIS":"548.291","ARG_OF_PERICENTER":"78.5062","TLE_LINE2":"2 46043  53.0564  35.1413 0001546  78.5062 281.6100 15.06397857 82305","ECCENTRICITY":"0.00015460","RCS_SIZE":"LARGE","TLE_LINE1":"1 46043U 20055S   22026.40382438 -.00000385  00000-0 -69157-5 0  9994"},{"APOAPSIS":"548.367","INCLINATION":"53.0547","SITE":"AFETR","ARG_OF_PERICENTER":"73.3932","ECCENTRICITY":"0.00017160","TLE_LINE2":"2 46044  53.0547  35.0613 0001716  73.3932 286.7245 15.06411557 82317","RCS_SIZE":"LARGE","TLE_LINE1":"1 46044U 20055T   22026.41855868  .00003702  00000-0  26719-3 0  9997","PERIAPSIS":"545.990","SEMIMAJOR_AXIS":"6925.313","EPHEMERIS_TYPE":"0","MEAN_ANOMALY":"286.7245","NORAD_CAT_ID":"46044","MEAN_MOTION":"15.06411557","FILE":"3284266","TIME_SYSTEM":"UTC","LAUNCH_DATE":"2020-08-07","OBJECT_NAME":"STARLINK-1584","MEAN_MOTION_DDOT":"0.0000000000000","RA_OF_ASC_NODE":"35.0613","CENTER_NAME":"EARTH","GP_ID":"194677460","MEAN_ELEMENT_THEORY":"SGP4","DECAY_DATE":null,"REF_FRAME":"TEME","OBJECT_ID":"2020-055T","MEAN_MOTION_DOT":"0.00003702","COUNTRY_CODE":"US","CLASSIFICATION_TYPE":"U","ELEMENT_SET_NO":"999","OBJECT_TYPE":"PAYLOAD","BSTAR":"0.00026719000000","REV_AT_EPOCH":"8231","EPOCH":"2022-01-26T10:02:43.469952","PERIOD":"95.591"},{"LAUNCH_DATE":"2020-08-07","TIME_SYSTEM":"UTC","FILE":"3284266","MEAN_MOTION":"15.06398464","CENTER_NAME":"EARTH","RA_OF_ASC_NODE":"35.0155","MEAN_MOTION_DDOT":"0.0000000000000","OBJECT_NAME":"STARLINK-1591","MEAN_ELEMENT_THEORY":"SGP4","GP_ID":"194678210","REF_FRAME":"TEME","DECAY_DATE":null,"MEAN_MOTION_DOT":"0.00000963","COUNTRY_CODE":"US","OBJECT_ID":"2020-055U","ELEMENT_SET_NO":"999","CLASSIFICATION_TYPE":"U","BSTAR":"0.00008352700000","OBJECT_TYPE":"PAYLOAD","EPOCH":"2022-01-26T10:18:39.042720","PERIOD":"95.592","REV_AT_EPOCH":"8229","ARG_OF_PERICENTER":"78.1694","INCLINATION":"53.0549","SITE":"AFETR","APOAPSIS":"548.252","TLE_LINE2":"2 46045  53.0549  35.0155 0001493  78.1694 281.9462 15.06398464 82297","ECCENTRICITY":"0.00014930","TLE_LINE1":"1 46045U 20055U   22026.42961855  .00000963  00000-0  83527-4 0  9990","RCS_SIZE":"LARGE","PERIAPSIS":"546.184","MEAN_ANOMALY":"281.9462","EPHEMERIS_TYPE":"0","SEMIMAJOR_AXIS":"6925.353","NORAD_CAT_ID":"46045"},{"TLE_LINE1":"1 46046U 20055V   22026.22283006  .00032046  00000-0  40921-3 0  9991","RCS_SIZE":"LARGE","ARG_OF_PERICENTER":"81.3491","APOAPSIS":"394.602","SITE":"AFETR","INCLINATION":"53.0556","ECCENTRICITY":"0.00059090","TLE_LINE2":"2 46046  53.0556 344.0285 0005909  81.3491 278.8190 15.58982628 82987","NORAD_CAT_ID":"46046","PERIAPSIS":"386.603","SEMIMAJOR_AXIS":"6768.737","EPHEMERIS_TYPE":"0","MEAN_ANOMALY":"278.8190","MEAN_ELEMENT_THEORY":"SGP4","GP_ID":"194678462","REF_FRAME":"TEME","DECAY_DATE":null,"LAUNCH_DATE":"2020-08-07","MEAN_MOTION":"15.58982628","FILE":"3284266","TIME_SYSTEM":"UTC","RA_OF_ASC_NODE":"344.0285","CENTER_NAME":"EARTH","MEAN_MOTION_DDOT":"0.0000000000000","OBJECT_NAME":"STARLINK-1514","BSTAR":"0.00040921000000","OBJECT_TYPE":"PAYLOAD","REV_AT_EPOCH":"8298","EPOCH":"2022-01-26T05:20:52.517184","PERIOD":"92.368","MEAN_MOTION_DOT":"0.00032046","COUNTRY_CODE":"US","OBJECT_ID":"2020-055V","ELEMENT_SET_NO":"999","CLASSIFICATION_TYPE":"U"},{"CLASSIFICATION_TYPE":"U","ELEMENT_SET_NO":"999","MEAN_MOTION_DOT":"0.00000788","COUNTRY_CODE":"US","OBJECT_ID":"2020-055W","REV_AT_EPOCH":"8244","PERIOD":"95.592","EPOCH":"2022-01-26T09:10:58.481184","BSTAR":"0.00007180800000","OBJECT_TYPE":"PAYLOAD","RA_OF_ASC_NODE":"25.2413","CENTER_NAME":"EARTH","MEAN_MOTION_DDOT":"0.0000000000000","OBJECT_NAME":"STARLINK-1524","LAUNCH_DATE":"2020-08-07","FILE":"3284266","TIME_SYSTEM":"UTC","MEAN_MOTION":"15.06404437","REF_FRAME":"TEME","DECAY_DATE":null,"MEAN_ELEMENT_THEORY":"SGP4","GP_ID":"194678712","SEMIMAJOR_AXIS":"6925.335","EPHEMERIS_TYPE":"0","MEAN_ANOMALY":"288.6064","PERIAPSIS":"546.185","NORAD_CAT_ID":"46047","ECCENTRICITY":"0.00014650","TLE_LINE2":"2 46047  53.0562  25.2413 0001465  71.5084 288.6064 15.06404437 82448","ARG_OF_PERICENTER":"71.5084","APOAPSIS":"548.215","SITE":"AFETR","INCLINATION":"53.0562","TLE_LINE1":"1 46047U 20055W   22026.38262131  .00000788  00000-0  71808-4 0  9992","RCS_SIZE":"LARGE"},{"FILE":"3284386","MEAN_MOTION":"15.06411783","TIME_SYSTEM":"UTC","LAUNCH_DATE":"2020-08-07","MEAN_MOTION_DDOT":"0.0000000000000","OBJECT_NAME":"STARLINK-1527","CENTER_NAME":"EARTH","RA_OF_ASC_NODE":"23.7506","GP_ID":"194686365","MEAN_ELEMENT_THEORY":"SGP4","REF_FRAME":"TEME","DECAY_DATE":null,"OBJECT_ID":"2020-055X","MEAN_MOTION_DOT":"0.00002226","COUNTRY_CODE":"US","ELEMENT_SET_NO":"999","CLASSIFICATION_TYPE":"U","OBJECT_TYPE":"PAYLOAD","BSTAR":"0.00016821000000","PERIOD":"95.591","EPOCH":"2022-01-26T17:03:20.814048","REV_AT_EPOCH":"8198","SITE":"AFETR","INCLINATION":"53.0566","APOAPSIS":"548.329","ARG_OF_PERICENTER":"73.5677","TLE_LINE2":"2 46048  53.0566  23.7506 0001663  73.5677 286.5495 15.06411783 81984","ECCENTRICITY":"0.00016630","RCS_SIZE":"LARGE","TLE_LINE1":"1 46048U 20055X   22026.71065757  .00002226  00000-0  16821-3 0  9997","PERIAPSIS":"546.026","MEAN_ANOMALY":"286.5495","SEMIMAJOR_AXIS":"6925.312","EPHEMERIS_TYPE":"0","NORAD_CAT_ID":"46048"},{"NORAD_CAT_ID":"46049","PERIAPSIS":"546.194","SEMIMAJOR_AXIS":"6925.359","EPHEMERIS_TYPE":"0","MEAN_ANOMALY":"293.7852","TLE_LINE1":"1 46049U 20055Y   22026.37525335 -.00001257  00000-0 -65531-4 0  9991","RCS_SIZE":"LARGE","ARG_OF_PERICENTER":"66.3293","APOAPSIS":"548.255","SITE":"AFETR","INCLINATION":"53.0553","ECCENTRICITY":"0.00014880","TLE_LINE2":"2 46049  53.0553  25.2637 0001488  66.3293 293.7852 15.06396518 82450","OBJECT_TYPE":"PAYLOAD","BSTAR":"-0.00006553100000","REV_AT_EPOCH":"8245","PERIOD":"95.592","EPOCH":"2022-01-26T09:00:21.889440","MEAN_MOTION_DOT":"-0.00001257","COUNTRY_CODE":"US","OBJECT_ID":"2020-055Y","ELEMENT_SET_NO":"999","CLASSIFICATION_TYPE":"U","MEAN_ELEMENT_THEORY":"SGP4","GP_ID":"194677711","REF_FRAME":"TEME","DECAY_DATE":null,"LAUNCH_DATE":"2020-08-07","FILE":"3284266","MEAN_MOTION":"15.06396518","TIME_SYSTEM":"UTC","RA_OF_ASC_NODE":"25.2637","CENTER_NAME":"EARTH","MEAN_MOTION_DDOT":"0.0000000000000","OBJECT_NAME":"STARLINK-1530"},{"ECCENTRICITY":"0.00014040","TLE_LINE2":"2 46051  53.0552  23.9037 0001404  76.1685 283.9460 15.06407473 81989","APOAPSIS":"548.163","INCLINATION":"53.0552","SITE":"AFETR","ARG_OF_PERICENTER":"76.1685","RCS_SIZE":"LARGE","TLE_LINE1":"1 46051U 20055AA  22026.67749140  .00000875  00000-0  77621-4 0  9995","SEMIMAJOR_AXIS":"6925.326","EPHEMERIS_TYPE":"0","MEAN_ANOMALY":"283.9460","PERIAPSIS":"546.218","NORAD_CAT_ID":"46051","MEAN_MOTION_DDOT":"0.0000000000000","OBJECT_NAME":"STARLINK-1540","RA_OF_ASC_NODE":"23.9037","CENTER_NAME":"EARTH","TIME_SYSTEM":"UTC","FILE":"3284392","MEAN_MOTION":"15.06407473","LAUNCH_DATE":"2020-08-07","DECAY_DATE":null,"REF_FRAME":"TEME","GP_ID":"194686456","MEAN_ELEMENT_THEORY":"SGP4","ELEMENT_SET_NO":"999","CLASSIFICATION_TYPE":"U","OBJECT_ID":"2020-055AA","COUNTRY_CODE":"US","MEAN_MOTION_DOT":"0.00000875","REV_AT_EPOCH":"8198","EPOCH":"2022-01-26T16:15:35.256960","PERIOD":"95.592","OBJECT_TYPE":"PAYLOAD","BSTAR":"0.00007762100000"},{"RCS_SIZE":"LARGE","TLE_LINE1":"1 46052U 20055AB  22026.39737018  .00001857  00000-0  14351-3 0  9997","TLE_LINE2":"2 46052  53.0540  25.1545 0001600  81.0923 279.0247 15.06397453 82428","ECCENTRICITY":"0.00016000","INCLINATION":"53.0540","SITE":"AFETR","APOAPSIS":"548.329","ARG_OF_PERICENTER":"81.0923","NORAD_CAT_ID":"46052","MEAN_ANOMALY":"279.0247","EPHEMERIS_TYPE":"0","SEMIMAJOR_AXIS":"6925.356","PERIAPSIS":"546.113","REF_FRAME":"TEME","DECAY_DATE":null,"GP_ID":"194679212","MEAN_ELEMENT_THEORY":"SGP4","OBJECT_NAME":"STARLINK-1541","MEAN_MOTION_DDOT":"0.0000000000000","CENTER_NAME":"EARTH","RA_OF_ASC_NODE":"25.1545","MEAN_MOTION":"15.06397453","FILE":"3284266","TIME_SYSTEM":"UTC","LAUNCH_DATE":"2020-08-07","PERIOD":"95.592","EPOCH":"2022-01-26T09:32:12.783552","REV_AT_EPOCH":"8242","OBJECT_TYPE":"PAYLOAD","BSTAR":"0.00014351000000","ELEMENT_SET_NO":"999","CLASSIFICATION_TYPE":"U","OBJECT_ID":"2020-055AB","MEAN_MOTION_DOT":"0.00001857","COUNTRY_CODE":"US"}];
